ISS (ZARYA)             
1 25544U 98067A   26012.17690827  .00009276  00000+0  17471-3 0  9997
2 25544  51.6333 351.7881 0007723   8.9804 351.1321 15.49250518547578
CSS (TIANHE)            
1 48274U 21035A   26012.12737156  .00021726  00000+0  25939-3 0  9997
2 48274  41.4654 192.0458 0011500 268.5283  91.4238 15.60438906268770
ISS (NAUKA)             
1 49044U 21066A   26012.17690827  .00009276  00000+0  17471-3 0  9993
2 49044  51.6333 351.7881 0007723   8.9804 351.1321 15.49250518230444
FREGAT DEB              
1 49271U 11037PF  26011.52089402  .00039588  00000+0  80012-1 0  9999
2 49271  51.6325 111.3284 0887439 289.4597  61.2524 12.35536479205619
CSS (WENTIAN)           
1 53239U 22085A   26012.12737156  .00021726  00000+0  25939-3 0  9990
2 53239  41.4654 192.0458 0011500 268.5283  91.4238 15.60438906173840
CSS (MENGTIAN)          
1 54216U 22143A   26012.12737156  .00021726  00000+0  25939-3 0  9991
2 54216  41.4654 192.0458 0011500 268.5283  91.4238 15.60438906158647
SHENZHOU-20 (SZ-20)     
1 63632U 25082A   26012.12737156  .00021726  00000+0  25939-3 0  9998
2 63632  41.4654 192.0458 0011500 268.5283  91.4238 15.60438906255300
PROGRESS-MS 31          
1 64751U 25146A   26012.17690827  .00009276  00000+0  17471-3 0  9998
2 64751  51.6333 351.7881 0007723   8.9804 351.1321 15.49250518  6751
TIANZHOU-9              
1 64786U 25149A   26012.12737156  .00021726  00000+0  25939-3 0  9993
2 64786  41.4654 192.0458 0011500 268.5283  91.4238 15.60438906255301
CREW DRAGON 11          
1 65077U 25166A   26012.17690827  .00009276  00000+0  17471-3 0  9992
2 65077  51.6333 351.7881 0007723   8.9804 351.1321 15.49250518  2142
DRAGON CRS-33           
1 65304U 25186A   26012.17690827  .00009276  00000+0  17471-3 0  9997
2 65304  51.6333 351.7881 0007723   8.9804 351.1321 15.49250518   110
PROGRESS-MS 32          
1 65586U 25204A   26012.17690827  .00009276  00000+0  17471-3 0  9990
2 65586  51.6333 351.7881 0007723   8.9804 351.1321 15.49250518   279
