CCSDS_OMM_VERS = 2.0
CREATION_DATE  = 
ORIGINATOR     = 

OBJECT_NAME    = ISS (ZARYA)
OBJECT_ID      = 1998-067A
CENTER_NAME    = EARTH
REF_FRAME      = TEME
TIME_SYSTEM    = UTC
MEAN_ELEMENT_THEORY = SGP/SGP4

EPOCH          = 2026-01-12T04:14:44.874528
MEAN_MOTION    = 15.49250518
ECCENTRICITY   = .00077234
INCLINATION    = 51.6333
RA_OF_ASC_NODE = 351.7881
ARG_OF_PERICENTER = 8.9804
MEAN_ANOMALY   = 351.1321

EPHEMERIS_TYPE = 0
CLASSIFICATION_TYPE = U
NORAD_CAT_ID   = 25544
ELEMENT_SET_NO = 999
REV_AT_EPOCH   = 54757
BSTAR          = .17470929E-3
MEAN_MOTION_DOT = .9276E-4
MEAN_MOTION_DDOT = 0

CCSDS_OMM_VERS = 2.0
CREATION_DATE  = 
ORIGINATOR     = 

OBJECT_NAME    = CSS (TIANHE)
OBJECT_ID      = 2021-035A
CENTER_NAME    = EARTH
REF_FRAME      = TEME
TIME_SYSTEM    = UTC
MEAN_ELEMENT_THEORY = SGP/SGP4

EPOCH          = 2026-01-12T03:03:24.902784
MEAN_MOTION    = 15.60438906
ECCENTRICITY   = .00115001
INCLINATION    = 41.4654
RA_OF_ASC_NODE = 192.0458
ARG_OF_PERICENTER = 268.5283
MEAN_ANOMALY   = 91.4238

EPHEMERIS_TYPE = 0
CLASSIFICATION_TYPE = U
NORAD_CAT_ID   = 48274
ELEMENT_SET_NO = 999
REV_AT_EPOCH   = 26877
BSTAR          = .25939425E-3
MEAN_MOTION_DOT = .21726E-3
MEAN_MOTION_DDOT = 0

CCSDS_OMM_VERS = 2.0
CREATION_DATE  = 
ORIGINATOR     = 

OBJECT_NAME    = ISS (NAUKA)
OBJECT_ID      = 2021-066A
CENTER_NAME    = EARTH
REF_FRAME      = TEME
TIME_SYSTEM    = UTC
MEAN_ELEMENT_THEORY = SGP/SGP4

EPOCH          = 2026-01-12T04:14:44.874528
MEAN_MOTION    = 15.49250518
ECCENTRICITY   = .00077234
INCLINATION    = 51.6333
RA_OF_ASC_NODE = 351.7881
ARG_OF_PERICENTER = 8.9804
MEAN_ANOMALY   = 351.1321

EPHEMERIS_TYPE = 0
CLASSIFICATION_TYPE = U
NORAD_CAT_ID   = 49044
ELEMENT_SET_NO = 999
REV_AT_EPOCH   = 23044
BSTAR          = .17470929E-3
MEAN_MOTION_DOT = .9276E-4
MEAN_MOTION_DDOT = 0

CCSDS_OMM_VERS = 2.0
CREATION_DATE  = 
ORIGINATOR     = 

OBJECT_NAME    = FREGAT DEB
OBJECT_ID      = 2011-037PF
CENTER_NAME    = EARTH
REF_FRAME      = TEME
TIME_SYSTEM    = UTC
MEAN_ELEMENT_THEORY = SGP/SGP4

EPOCH          = 2026-01-11T12:30:05.243328
MEAN_MOTION    = 12.35536479
ECCENTRICITY   = .08874393
INCLINATION    = 51.6325
RA_OF_ASC_NODE = 111.3284
ARG_OF_PERICENTER = 289.4597
MEAN_ANOMALY   = 61.2524

EPHEMERIS_TYPE = 0
CLASSIFICATION_TYPE = U
NORAD_CAT_ID   = 49271
ELEMENT_SET_NO = 999
REV_AT_EPOCH   = 20561
BSTAR          = .80012394E-1
MEAN_MOTION_DOT = .39588E-3
MEAN_MOTION_DDOT = 0

CCSDS_OMM_VERS = 2.0
CREATION_DATE  = 
ORIGINATOR     = 

OBJECT_NAME    = CSS (WENTIAN)
OBJECT_ID      = 2022-085A
CENTER_NAME    = EARTH
REF_FRAME      = TEME
TIME_SYSTEM    = UTC
MEAN_ELEMENT_THEORY = SGP/SGP4

EPOCH          = 2026-01-12T03:03:24.902784
MEAN_MOTION    = 15.60438906
ECCENTRICITY   = .00115001
INCLINATION    = 41.4654
RA_OF_ASC_NODE = 192.0458
ARG_OF_PERICENTER = 268.5283
MEAN_ANOMALY   = 91.4238

EPHEMERIS_TYPE = 0
CLASSIFICATION_TYPE = U
NORAD_CAT_ID   = 53239
ELEMENT_SET_NO = 999
REV_AT_EPOCH   = 17384
BSTAR          = .25939425E-3
MEAN_MOTION_DOT = .21726E-3
MEAN_MOTION_DDOT = 0

CCSDS_OMM_VERS = 2.0
CREATION_DATE  = 
ORIGINATOR     = 

OBJECT_NAME    = CSS (MENGTIAN)
OBJECT_ID      = 2022-143A
CENTER_NAME    = EARTH
REF_FRAME      = TEME
TIME_SYSTEM    = UTC
MEAN_ELEMENT_THEORY = SGP/SGP4

EPOCH          = 2026-01-12T03:03:24.902784
MEAN_MOTION    = 15.60438906
ECCENTRICITY   = .00115001
INCLINATION    = 41.4654
RA_OF_ASC_NODE = 192.0458
ARG_OF_PERICENTER = 268.5283
MEAN_ANOMALY   = 91.4238

EPHEMERIS_TYPE = 0
CLASSIFICATION_TYPE = U
NORAD_CAT_ID   = 54216
ELEMENT_SET_NO = 999
REV_AT_EPOCH   = 15864
BSTAR          = .25939425E-3
MEAN_MOTION_DOT = .21726E-3
MEAN_MOTION_DDOT = 0

CCSDS_OMM_VERS = 2.0
CREATION_DATE  = 
ORIGINATOR     = 

OBJECT_NAME    = SHENZHOU-20 (SZ-20)
OBJECT_ID      = 2025-082A
CENTER_NAME    = EARTH
REF_FRAME      = TEME
TIME_SYSTEM    = UTC
MEAN_ELEMENT_THEORY = SGP/SGP4

EPOCH          = 2026-01-12T03:03:24.902784
MEAN_MOTION    = 15.60438906
ECCENTRICITY   = .00115001
INCLINATION    = 41.4654
RA_OF_ASC_NODE = 192.0458
ARG_OF_PERICENTER = 268.5283
MEAN_ANOMALY   = 91.4238

EPHEMERIS_TYPE = 0
CLASSIFICATION_TYPE = U
NORAD_CAT_ID   = 63632
ELEMENT_SET_NO = 999
REV_AT_EPOCH   = 25530
BSTAR          = .25939425E-3
MEAN_MOTION_DOT = .21726E-3
MEAN_MOTION_DDOT = 0

CCSDS_OMM_VERS = 2.0
CREATION_DATE  = 
ORIGINATOR     = 

OBJECT_NAME    = PROGRESS-MS 31
OBJECT_ID      = 2025-146A
CENTER_NAME    = EARTH
REF_FRAME      = TEME
TIME_SYSTEM    = UTC
MEAN_ELEMENT_THEORY = SGP/SGP4

EPOCH          = 2026-01-12T04:14:44.874528
MEAN_MOTION    = 15.49250518
ECCENTRICITY   = .00077234
INCLINATION    = 51.6333
RA_OF_ASC_NODE = 351.7881
ARG_OF_PERICENTER = 8.9804
MEAN_ANOMALY   = 351.1321

EPHEMERIS_TYPE = 0
CLASSIFICATION_TYPE = U
NORAD_CAT_ID   = 64751
ELEMENT_SET_NO = 999
REV_AT_EPOCH   = 675
BSTAR          = .17470929E-3
MEAN_MOTION_DOT = .9276E-4
MEAN_MOTION_DDOT = 0

CCSDS_OMM_VERS = 2.0
CREATION_DATE  = 
ORIGINATOR     = 

OBJECT_NAME    = TIANZHOU-9
OBJECT_ID      = 2025-149A
CENTER_NAME    = EARTH
REF_FRAME      = TEME
TIME_SYSTEM    = UTC
MEAN_ELEMENT_THEORY = SGP/SGP4

EPOCH          = 2026-01-12T03:03:24.902784
MEAN_MOTION    = 15.60438906
ECCENTRICITY   = .00115001
INCLINATION    = 41.4654
RA_OF_ASC_NODE = 192.0458
ARG_OF_PERICENTER = 268.5283
MEAN_ANOMALY   = 91.4238

EPHEMERIS_TYPE = 0
CLASSIFICATION_TYPE = U
NORAD_CAT_ID   = 64786
ELEMENT_SET_NO = 999
REV_AT_EPOCH   = 25530
BSTAR          = .25939425E-3
MEAN_MOTION_DOT = .21726E-3
MEAN_MOTION_DDOT = 0

CCSDS_OMM_VERS = 2.0
CREATION_DATE  = 
ORIGINATOR     = 

OBJECT_NAME    = CREW DRAGON 11
OBJECT_ID      = 2025-166A
CENTER_NAME    = EARTH
REF_FRAME      = TEME
TIME_SYSTEM    = UTC
MEAN_ELEMENT_THEORY = SGP/SGP4

EPOCH          = 2026-01-12T04:14:44.874528
MEAN_MOTION    = 15.49250518
ECCENTRICITY   = .00077234
INCLINATION    = 51.6333
RA_OF_ASC_NODE = 351.7881
ARG_OF_PERICENTER = 8.9804
MEAN_ANOMALY   = 351.1321

EPHEMERIS_TYPE = 0
CLASSIFICATION_TYPE = U
NORAD_CAT_ID   = 65077
ELEMENT_SET_NO = 999
REV_AT_EPOCH   = 214
BSTAR          = .17470929E-3
MEAN_MOTION_DOT = .9276E-4
MEAN_MOTION_DDOT = 0

CCSDS_OMM_VERS = 2.0
CREATION_DATE  = 
ORIGINATOR     = 

OBJECT_NAME    = DRAGON CRS-33
OBJECT_ID      = 2025-186A
CENTER_NAME    = EARTH
REF_FRAME      = TEME
TIME_SYSTEM    = UTC
MEAN_ELEMENT_THEORY = SGP/SGP4

EPOCH          = 2026-01-12T04:14:44.874528
MEAN_MOTION    = 15.49250518
ECCENTRICITY   = .00077234
INCLINATION    = 51.6333
RA_OF_ASC_NODE = 351.7881
ARG_OF_PERICENTER = 8.9804
MEAN_ANOMALY   = 351.1321

EPHEMERIS_TYPE = 0
CLASSIFICATION_TYPE = U
NORAD_CAT_ID   = 65304
ELEMENT_SET_NO = 999
REV_AT_EPOCH   = 11
BSTAR          = .17470929E-3
MEAN_MOTION_DOT = .9276E-4
MEAN_MOTION_DDOT = 0

CCSDS_OMM_VERS = 2.0
CREATION_DATE  = 
ORIGINATOR     = 

OBJECT_NAME    = PROGRESS-MS 32
OBJECT_ID      = 2025-204A
CENTER_NAME    = EARTH
REF_FRAME      = TEME
TIME_SYSTEM    = UTC
MEAN_ELEMENT_THEORY = SGP/SGP4

EPOCH          = 2026-01-12T04:14:44.874528
MEAN_MOTION    = 15.49250518
ECCENTRICITY   = .00077234
INCLINATION    = 51.6333
RA_OF_ASC_NODE = 351.7881
ARG_OF_PERICENTER = 8.9804
MEAN_ANOMALY   = 351.1321

EPHEMERIS_TYPE = 0
CLASSIFICATION_TYPE = U
NORAD_CAT_ID   = 65586
ELEMENT_SET_NO = 999
REV_AT_EPOCH   = 27
BSTAR          = .17470929E-3
MEAN_MOTION_DOT = .9276E-4
MEAN_MOTION_DDOT = 0

